QIANFAN-180             
1 69397U 26124R   26168.86292522 -.01946420  00000+0 -10156+1 0  9998
2 69397  88.9978   1.9561 0005675 225.1706 134.9023 14.18473966  1915
QIANFAN-181             
1 69398U 26124S   26168.88867485 -.01761855  00000+0 -10370+1 0  9992
2 69398  88.9978   1.9598 0006889 128.7361 231.4442 14.12213242  1910
QIANFAN-182             
1 69399U 26124T   26168.87854608 -.01772691  00000+0 -10033+1 0  9991
2 69399  88.9978   1.9583 0003691 156.2561 203.8797 14.14382539  1915
QIANFAN OBJECT A        
1 69401U 26125A   26168.69126813 -.01651562  00000+0 -97878+0 0  9990
2 69401  88.9947 280.3937 0019847 172.1127 188.0375 14.11485234  1779
QIANFAN OBJECT B        
1 69402U 26125B   26168.47547660 -.02055229  00000+0 -11737+1 0  9994
2 69402  88.9938 280.4151 0015306 171.0731 189.0731 14.13777102  1748
QIANFAN OBJECT C        
1 69403U 26125C   26168.68674677 -.01754819  00000+0 -10261+1 0  9998
2 69403  88.9947 280.3931 0020424 164.8771 195.3030 14.12461919  1775
QIANFAN OBJECT D        
1 69404U 26125D   26168.61160352 -.01824883  00000+0 -10433+1 0  9992
2 69404  88.9948 280.4005 0016679 160.6732 199.5090 14.13232659  1767
QIANFAN OBJECT E        
1 69405U 26125E   26168.60961634 -.01780805  00000+0 -10163+1 0  9999
2 69405  88.9946 280.4000 0017357 167.7699 192.3913 14.13878561  1768
QIANFAN OBJECT F        
1 69406U 26125F   26168.60670402 -.01737909  00000+0 -96810+0 0  9999
2 69406  88.9947 280.3997 0017342 181.3775 178.7367 14.15084907  1761
QIANFAN OBJECT G        
1 69407U 26125G   26168.67664827 -.01728094  00000+0 -97856+0 0  9997
2 69407  88.9947 280.3920 0016191 175.0592 185.0758 14.14182121  1778
QIANFAN OBJECT H        
1 69408U 26125H   26168.60499645 -.01740134  00000+0 -97667+0 0  9994
2 69408  88.9947 280.3997 0017185 173.7543 186.3862 14.14683866  1769
QIANFAN OBJECT J        
1 69409U 26125J   26168.67258568 -.01756346  00000+0 -97738+0 0  9990
2 69409  88.9947 280.3907 0016904 175.2815 184.8535 14.15188077  1774
QIANFAN OBJECT K        
1 69410U 26125K   26168.45921022 -.01776964  00000+0 -96379+0 0  9998
2 69410  88.9945 280.4149 0018296 185.8959 174.2016 14.16611060  1743
QIANFAN OBJECT L        
1 69411U 26125L   26168.59729616 -.01773691  00000+0 -94956+0 0  9992
2 69411  88.9947 280.3982 0012846 191.7547 168.3344 14.17349401  1762
QIANFAN OBJECT M        
1 69412U 26125M   26168.66655198 -.01819524  00000+0 -95613+0 0  9991
2 69412  88.9945 280.3900 0013592 197.0320 163.0414 14.17796679  1761
QIANFAN OBJECT N        
1 69413U 26125N   26168.66535198 -.01783982  00000+0 -93375+0 0  9990
2 69413  88.9946 280.3899 0013238 192.0047 168.0828 14.18583164  1777
QIANFAN OBJECT P        
1 69414U 26125P   26168.66418554 -.01766525  00000+0 -91902+0 0  9995
2 69414  88.9947 280.3893 0012349 192.1142 167.9753 14.18871868  1778
QIANFAN OBJECT Q        
1 69415U 26125Q   26168.73413150 -.01839226  00000+0 -94391+0 0  9995
2 69415  88.9946 280.3814 0008556 187.5656 172.5406 14.19130968  1771
QIANFAN OBJECT R        
1 69416U 26125R   26168.59394481 -.01823161  00000+0 -95083+0 0  9995
2 69416  88.9946 280.3979 0016538 188.5541 171.5369 14.18185467  1766
QIANFAN OBJECT S        
1 69417U 26125S   26168.73311680 -.01690265  00000+0 -87205+0 0  9996
2 69417  88.9947 280.3814 0011007 176.3462 183.7810 14.19142098  1781
QIANFAN OBJECT T        
1 69418U 26125T   26168.67299879 -.01740558  00000+0 -96757+0 0  9998
2 69418  88.9947 280.3909 0016442 179.0490 181.0732 14.15211165  1777
STARLINK-37629          
1 69443U 26127A   26168.91668981 -.00055399  00000+0 -27854-3 0  9996
2 69443  53.1589 258.8544 0000882  59.3262 132.8523 15.80903685  2753
STARLINK-37509          
1 69444U 26127B   26168.91668981 -.00029958  00000+0 -14860-3 0  9992
2 69444  53.1588 258.8316 0001651  60.4740 142.9106 15.80893970  2753
STARLINK-37641          
1 69445U 26127C   26168.91668981 -.00094521  00000+0 -47954-3 0  9991
2 69445  53.1614 258.8142 0001185  64.6970 146.9498 15.80919992  2755
STARLINK-37522          
1 69446U 26127D   26168.91668981 -.00095629  00000+0 -48533-3 0  9996
2 69446  53.1587 258.7980 0000876  65.0143 154.5754 15.80917851  2759
STARLINK-37640          
1 69447U 26127E   26168.91668981 -.00024431  00000+0 -12046-3 0  9990
2 69447  53.1585 258.7817 0001206  66.7128 160.7409 15.80894709  2758
STARLINK-37572          
1 69448U 26127F   26168.91668981 -.00066509  00000+0 -33563-3 0  9990
2 69448  53.1610 258.7472 0000743  74.0141 170.0090 15.80898441  2754
STARLINK-37643          
1 69449U 26127G   26168.91668981 -.00040578  00000+0 -20288-3 0  9999
2 69449  53.1611 258.7342 0000923  80.5731 169.8431 15.80887320  2758
